{
 "type": "FeatureCollection",
 "features": [
  {
   "type": "Feature",
   "geometry": {
    "type": "Polygon",
    "coordinates": [
     [
      [
       45.575277,
       41.957635
      ],
      [
       45.574802,
       41.955924
      ],
      [
       45.577407,
       41.955403
      ],
      [
       45.577607,
       41.955648
      ],
      [
       45.579254,
       41.955284
      ],
      [
       45.580085,
       41.95748
      ],
      [
       45.57679,
       41.958131
      ],
      [
       45.576538,
       41.957381
      ],
      [
       45.575277,
       41.957635
      ]
     ]
    ]
   },
   "properties": {
    "id": "field-1",
    "name": "Vineyard near Kondoli",
    "crop": "grape (vineyard)",
    "village": "Kondoli",
    "region": "Kakheti",
    "area_ha": 9.38,
    "source": "OpenStreetMap way 866085848, ODbL",
    "osm_url": "https://www.openstreetmap.org/way/866085848",
    "s2_recent": [
     {
      "date": "2026-09-24",
      "cloud_pct": 5.6,
      "product": "S2A_MSIL2A_20260924T075811_N0513_R135_T38TNM_20260924T105607"
     },
     {
      "date": "2026-09-14",
      "cloud_pct": 6.6,
      "product": "S2A_MSIL2A_20260914T075021_N0512_R135_T38TNM_20260914T113321"
     },
     {
      "date": "2026-09-04",
      "cloud_pct": 9.9,
      "product": "S2A_MSIL2A_20260904T075811_N0512_R135_T38TNM_20260904T104708"
     }
    ]
   }
  },
  {
   "type": "Feature",
   "geometry": {
    "type": "Polygon",
    "coordinates": [
     [
      [
       45.831428,
       41.957323
      ],
      [
       45.830751,
       41.955597
      ],
      [
       45.83078,
       41.955399
      ],
      [
       45.830658,
       41.955218
      ],
      [
       45.829957,
       41.954163
      ],
      [
       45.829703,
       41.95353
      ],
      [
       45.829726,
       41.95291
      ],
      [
       45.831017,
       41.952303
      ],
      [
       45.830988,
       41.951963
      ],
      [
       45.832227,
       41.951455
      ],
      [
       45.832382,
       41.951852
      ],
      [
       45.83302,
       41.953491
      ],
      [
       45.833803,
       41.953343
      ],
      [
       45.834045,
       41.953298
      ],
      [
       45.835142,
       41.956158
      ],
      [
       45.834056,
       41.956604
      ],
      [
       45.832864,
       41.956975
      ],
      [
       45.831428,
       41.957323
      ]
     ]
    ]
   },
   "properties": {
    "id": "field-2",
    "name": "Vineyard near Kvareli",
    "crop": "grape (vineyard)",
    "village": "Kvareli",
    "region": "Kakheti",
    "area_ha": 16.82,
    "source": "OpenStreetMap way 871646542, ODbL",
    "osm_url": "https://www.openstreetmap.org/way/871646542",
    "s2_recent": [
     {
      "date": "2026-09-24",
      "cloud_pct": 5.6,
      "product": "S2A_MSIL2A_20260924T075811_N0513_R135_T38TNM_20260924T105607"
     },
     {
      "date": "2026-09-14",
      "cloud_pct": 6.6,
      "product": "S2A_MSIL2A_20260914T075021_N0512_R135_T38TNM_20260914T113321"
     },
     {
      "date": "2026-09-04",
      "cloud_pct": 9.9,
      "product": "S2A_MSIL2A_20260904T075811_N0512_R135_T38TNM_20260904T104708"
     }
    ]
   }
  },
  {
   "type": "Feature",
   "geometry": {
    "type": "Polygon",
    "coordinates": [
     [
      [
       45.643367,
       42.013212
      ],
      [
       45.643254,
       42.011466
      ],
      [
       45.645703,
       42.010762
      ],
      [
       45.645958,
       42.010015
      ],
      [
       45.647261,
       42.009657
      ],
      [
       45.647685,
       42.009657
      ],
      [
       45.648223,
       42.009762
      ],
      [
       45.649894,
       42.009605
      ],
      [
       45.649865,
       42.011361
      ],
      [
       45.648719,
       42.011519
      ],
      [
       45.645774,
       42.012392
      ],
      [
       45.643367,
       42.013212
      ]
     ]
    ]
   },
   "properties": {
    "id": "field-3",
    "name": "Vineyard near Gremi",
    "crop": "grape (vineyard)",
    "village": "Gremi",
    "region": "Kakheti",
    "area_ha": 11.62,
    "source": "OpenStreetMap way 878363717, ODbL",
    "osm_url": "https://www.openstreetmap.org/way/878363717",
    "s2_recent": [
     {
      "date": "2026-09-24",
      "cloud_pct": 5.6,
      "product": "S2A_MSIL2A_20260924T075811_N0513_R135_T38TNM_20260924T105607"
     },
     {
      "date": "2026-09-14",
      "cloud_pct": 6.6,
      "product": "S2A_MSIL2A_20260914T075021_N0512_R135_T38TNM_20260914T113321"
     },
     {
      "date": "2026-09-04",
      "cloud_pct": 9.9,
      "product": "S2A_MSIL2A_20260904T075811_N0512_R135_T38TNM_20260904T104708"
     }
    ]
   }
  }
 ]
}